<?xml version="1.0" encoding="UTF-8"?>
<ndm xmlns:xsi="http://www.w3.org/2001/XMLSchema-instance" xsi:noNamespaceSchemaLocation="https://sanaregistry.org/r/ndmxml_unqualified/ndmxml-2.0.0-master-2.0.xsd">
<omm id="CCSDS_OMM_VERS" version="2.0">
<header><CREATION_DATE/><ORIGINATOR/></header><body><segment><metadata><OBJECT_NAME>ONEWEB-0549</OBJECT_NAME><OBJECT_ID>2023-043F</OBJECT_ID><CENTER_NAME>EARTH</CENTER_NAME><REF_FRAME>TEME</REF_FRAME><TIME_SYSTEM>UTC</TIME_SYSTEM><MEAN_ELEMENT_THEORY>SGP4</MEAN_ELEMENT_THEORY></metadata><data><meanElements><EPOCH>2025-06-30T20:35:36.619872</EPOCH><MEAN_MOTION>13.21827148</MEAN_MOTION><ECCENTRICITY>.000225</ECCENTRICITY><INCLINATION>87.9274</INCLINATION><RA_OF_ASC_NODE>314.0642</RA_OF_ASC_NODE><ARG_OF_PERICENTER>96.2603</ARG_OF_PERICENTER><MEAN_ANOMALY>263.8787</MEAN_ANOMALY></meanElements><tleParameters><EPHEMERIS_TYPE>0</EPHEMERIS_TYPE><CLASSIFICATION_TYPE>U</CLASSIFICATION_TYPE><NORAD_CAT_ID>56051</NORAD_CAT_ID><ELEMENT_SET_NO>999</ELEMENT_SET_NO><REV_AT_EPOCH>11181</REV_AT_EPOCH><BSTAR>.16972E-3</BSTAR><MEAN_MOTION_DOT>.83E-6</MEAN_MOTION_DOT><MEAN_MOTION_DDOT>0</MEAN_MOTION_DDOT></tleParameters></data></segment></body></omm>
<omm id="CCSDS_OMM_VERS" version="2.0">
<header><CREATION_DATE/><ORIGINATOR/></header><body><segment><metadata><OBJECT_NAME>ONEWEB-0550</OBJECT_NAME><OBJECT_ID>2023-043G</OBJECT_ID><CENTER_NAME>EARTH</CENTER_NAME><REF_FRAME>TEME</REF_FRAME><TIME_SYSTEM>UTC</TIME_SYSTEM><MEAN_ELEMENT_THEORY>SGP4</MEAN_ELEMENT_THEORY></metadata><data><meanElements><EPOCH>2025-06-30T20:17:27.032928</EPOCH><MEAN_MOTION>13.21826537</MEAN_MOTION><ECCENTRICITY>.0001759</ECCENTRICITY><INCLINATION>87.9270</INCLINATION><RA_OF_ASC_NODE>314.0609</RA_OF_ASC_NODE><ARG_OF_PERICENTER>102.5128</ARG_OF_PERICENTER><MEAN_ANOMALY>257.6203</MEAN_ANOMALY></meanElements><tleParameters><EPHEMERIS_TYPE>0</EPHEMERIS_TYPE><CLASSIFICATION_TYPE>U</CLASSIFICATION_TYPE><NORAD_CAT_ID>56052</NORAD_CAT_ID><ELEMENT_SET_NO>999</ELEMENT_SET_NO><REV_AT_EPOCH>11181</REV_AT_EPOCH><BSTAR>-.3116E-4</BSTAR><MEAN_MOTION_DOT>0</MEAN_MOTION_DOT><MEAN_MOTION_DDOT>0</MEAN_MOTION_DDOT></tleParameters></data></segment></body></omm>
<omm id="CCSDS_OMM_VERS" version="2.0">
<header><CREATION_DATE/><ORIGINATOR/></header><body><segment><metadata><OBJECT_NAME>ONEWEB-0551</OBJECT_NAME><OBJECT_ID>2023-043H</OBJECT_ID><CENTER_NAME>EARTH</CENTER_NAME><REF_FRAME>TEME</REF_FRAME><TIME_SYSTEM>UTC</TIME_SYSTEM><MEAN_ELEMENT_THEORY>SGP4</MEAN_ELEMENT_THEORY></metadata><data><meanElements><EPOCH>2025-06-30T22:08:23.369280</EPOCH><MEAN_MOTION>13.15549042</MEAN_MOTION><ECCENTRICITY>.0002086</ECCENTRICITY><INCLINATION>87.9064</INCLINATION><RA_OF_ASC_NODE>329.2660</RA_OF_ASC_NODE><ARG_OF_PERICENTER>98.2663</ARG_OF_PERICENTER><MEAN_ANOMALY>261.8704</MEAN_ANOMALY></meanElements><tleParameters><EPHEMERIS_TYPE>0</EPHEMERIS_TYPE><CLASSIFICATION_TYPE>U</CLASSIFICATION_TYPE><NORAD_CAT_ID>56053</NORAD_CAT_ID><ELEMENT_SET_NO>999</ELEMENT_SET_NO><REV_AT_EPOCH>11021</REV_AT_EPOCH><BSTAR>.99236E-4</BSTAR><MEAN_MOTION_DOT>.5E-6</MEAN_MOTION_DOT><MEAN_MOTION_DDOT>0</MEAN_MOTION_DDOT></tleParameters></data></segment></body></omm>
<omm id="CCSDS_OMM_VERS" version="2.0">
<header><CREATION_DATE/><ORIGINATOR/></header><body><segment><metadata><OBJECT_NAME>ONEWEB-0552</OBJECT_NAME><OBJECT_ID>2023-043J</OBJECT_ID><CENTER_NAME>EARTH</CENTER_NAME><REF_FRAME>TEME</REF_FRAME><TIME_SYSTEM>UTC</TIME_SYSTEM><MEAN_ELEMENT_THEORY>SGP4</MEAN_ELEMENT_THEORY></metadata><data><meanElements><EPOCH>2025-06-30T20:08:22.188480</EPOCH><MEAN_MOTION>13.21824856</MEAN_MOTION><ECCENTRICITY>.0002165</ECCENTRICITY><INCLINATION>87.9269</INCLINATION><RA_OF_ASC_NODE>314.0710</RA_OF_ASC_NODE><ARG_OF_PERICENTER>104.9318</ARG_OF_PERICENTER><MEAN_ANOMALY>255.2056</MEAN_ANOMALY></meanElements><tleParameters><EPHEMERIS_TYPE>0</EPHEMERIS_TYPE><CLASSIFICATION_TYPE>U</CLASSIFICATION_TYPE><NORAD_CAT_ID>56054</NORAD_CAT_ID><ELEMENT_SET_NO>999</ELEMENT_SET_NO><REV_AT_EPOCH>11181</REV_AT_EPOCH><BSTAR>.20359E-4</BSTAR><MEAN_MOTION_DOT>.21E-6</MEAN_MOTION_DOT><MEAN_MOTION_DDOT>0</MEAN_MOTION_DDOT></tleParameters></data></segment></body></omm>
<omm id="CCSDS_OMM_VERS" version="2.0">
<header><CREATION_DATE/><ORIGINATOR/></header><body><segment><metadata><OBJECT_NAME>ONEWEB-0553</OBJECT_NAME><OBJECT_ID>2023-043K</OBJECT_ID><CENTER_NAME>EARTH</CENTER_NAME><REF_FRAME>TEME</REF_FRAME><TIME_SYSTEM>UTC</TIME_SYSTEM><MEAN_ELEMENT_THEORY>SGP4</MEAN_ELEMENT_THEORY></metadata><data><meanElements><EPOCH>2025-06-30T20:21:06.298848</EPOCH><MEAN_MOTION>13.16593156</MEAN_MOTION><ECCENTRICITY>.0001594</ECCENTRICITY><INCLINATION>87.9054</INCLINATION><RA_OF_ASC_NODE>298.8021</RA_OF_ASC_NODE><ARG_OF_PERICENTER>95.1434</ARG_OF_PERICENTER><MEAN_ANOMALY>264.9879</MEAN_ANOMALY></meanElements><tleParameters><EPHEMERIS_TYPE>0</EPHEMERIS_TYPE><CLASSIFICATION_TYPE>U</CLASSIFICATION_TYPE><NORAD_CAT_ID>56055</NORAD_CAT_ID><ELEMENT_SET_NO>999</ELEMENT_SET_NO><REV_AT_EPOCH>11274</REV_AT_EPOCH><BSTAR>.37979E-4</BSTAR><MEAN_MOTION_DOT>.27E-6</MEAN_MOTION_DOT><MEAN_MOTION_DDOT>0</MEAN_MOTION_DDOT></tleParameters></data></segment></body></omm>
<omm id="CCSDS_OMM_VERS" version="2.0">
<header><CREATION_DATE/><ORIGINATOR/></header><body><segment><metadata><OBJECT_NAME>ONEWEB-0554</OBJECT_NAME><OBJECT_ID>2023-043L</OBJECT_ID><CENTER_NAME>EARTH</CENTER_NAME><REF_FRAME>TEME</REF_FRAME><TIME_SYSTEM>UTC</TIME_SYSTEM><MEAN_ELEMENT_THEORY>SGP4</MEAN_ELEMENT_THEORY></metadata><data><meanElements><EPOCH>2025-06-30T20:02:51.543456</EPOCH><MEAN_MOTION>13.16593614</MEAN_MOTION><ECCENTRICITY>.0001774</ECCENTRICITY><INCLINATION>87.9050</INCLINATION><RA_OF_ASC_NODE>298.8325</RA_OF_ASC_NODE><ARG_OF_PERICENTER>108.4894</ARG_OF_PERICENTER><MEAN_ANOMALY>251.6429</MEAN_ANOMALY></meanElements><tleParameters><EPHEMERIS_TYPE>0</EPHEMERIS_TYPE><CLASSIFICATION_TYPE>U</CLASSIFICATION_TYPE><NORAD_CAT_ID>56056</NORAD_CAT_ID><ELEMENT_SET_NO>999</ELEMENT_SET_NO><REV_AT_EPOCH>11272</REV_AT_EPOCH><BSTAR>.27469E-4</BSTAR><MEAN_MOTION_DOT>.23E-6</MEAN_MOTION_DOT><MEAN_MOTION_DDOT>0</MEAN_MOTION_DDOT></tleParameters></data></segment></body></omm>
<omm id="CCSDS_OMM_VERS" version="2.0">
<header><CREATION_DATE/><ORIGINATOR/></header><body><segment><metadata><OBJECT_NAME>ONEWEB-0555</OBJECT_NAME><OBJECT_ID>2023-043M</OBJECT_ID><CENTER_NAME>EARTH</CENTER_NAME><REF_FRAME>TEME</REF_FRAME><TIME_SYSTEM>UTC</TIME_SYSTEM><MEAN_ELEMENT_THEORY>SGP4</MEAN_ELEMENT_THEORY></metadata><data><meanElements><EPOCH>2025-06-30T20:57:34.404768</EPOCH><MEAN_MOTION>13.16594252</MEAN_MOTION><ECCENTRICITY>.0001467</ECCENTRICITY><INCLINATION>87.9054</INCLINATION><RA_OF_ASC_NODE>298.7912</RA_OF_ASC_NODE><ARG_OF_PERICENTER>89.8947</ARG_OF_PERICENTER><MEAN_ANOMALY>270.2352</MEAN_ANOMALY></meanElements><tleParameters><EPHEMERIS_TYPE>0</EPHEMERIS_TYPE><CLASSIFICATION_TYPE>U</CLASSIFICATION_TYPE><NORAD_CAT_ID>56057</NORAD_CAT_ID><ELEMENT_SET_NO>999</ELEMENT_SET_NO><REV_AT_EPOCH>11273</REV_AT_EPOCH><BSTAR>-.26432E-3</BSTAR><MEAN_MOTION_DOT>-.88E-6</MEAN_MOTION_DOT><MEAN_MOTION_DDOT>0</MEAN_MOTION_DDOT></tleParameters></data></segment></body></omm>
<omm id="CCSDS_OMM_VERS" version="2.0">
<header><CREATION_DATE/><ORIGINATOR/></header><body><segment><metadata><OBJECT_NAME>ONEWEB-0557</OBJECT_NAME><OBJECT_ID>2023-043N</OBJECT_ID><CENTER_NAME>EARTH</CENTER_NAME><REF_FRAME>TEME</REF_FRAME><TIME_SYSTEM>UTC</TIME_SYSTEM><MEAN_ELEMENT_THEORY>SGP4</MEAN_ELEMENT_THEORY></metadata><data><meanElements><EPOCH>2025-06-30T21:18:05.233248</EPOCH><MEAN_MOTION>13.16594835</MEAN_MOTION><ECCENTRICITY>.0000848</ECCENTRICITY><INCLINATION>87.9052</INCLINATION><RA_OF_ASC_NODE>298.8102</RA_OF_ASC_NODE><ARG_OF_PERICENTER>137.9557</ARG_OF_PERICENTER><MEAN_ANOMALY>222.1639</MEAN_ANOMALY></meanElements><tleParameters><EPHEMERIS_TYPE>0</EPHEMERIS_TYPE><CLASSIFICATION_TYPE>U</CLASSIFICATION_TYPE><NORAD_CAT_ID>56058</NORAD_CAT_ID><ELEMENT_SET_NO>999</ELEMENT_SET_NO><REV_AT_EPOCH>11364</REV_AT_EPOCH><BSTAR>.12758E-4</BSTAR><MEAN_MOTION_DOT>.18E-6</MEAN_MOTION_DOT><MEAN_MOTION_DDOT>0</MEAN_MOTION_DDOT></tleParameters></data></segment></body></omm>

</ndm>
