ONEWEB-0549             
1 56051U 23043F   25181.85806273  .00000083  00000+0  16972-3 0  9993
2 56051  87.9274 314.0642 0002250  96.2603 263.8787 13.21827148111811
ONEWEB-0550             
1 56052U 23043G   25181.84545177  .00000000  00000+0 -31160-4 0  9993
2 56052  87.9270 314.0609 0001759 102.5128 257.6203 13.21826537111812
ONEWEB-0551             
1 56053U 23043H   25181.92249270  .00000050  00000+0  99236-4 0  9990
2 56053  87.9064 329.2660 0002086  98.2663 261.8704 13.15549042110210
ONEWEB-0552             
1 56054U 23043J   25181.83914570  .00000021  00000+0  20359-4 0  9991
2 56054  87.9269 314.0710 0002165 104.9318 255.2056 13.21824856111816
ONEWEB-0553             
1 56055U 23043K   25181.84798957  .00000027  00000+0  37979-4 0  9994
2 56055  87.9054 298.8021 0001594  95.1434 264.9879 13.16593156112741
ONEWEB-0554             
1 56056U 23043L   25181.83531879  .00000023  00000+0  27469-4 0  9991
2 56056  87.9050 298.8325 0001774 108.4894 251.6429 13.16593614112724
ONEWEB-0555             
1 56057U 23043M   25181.87331487 -.00000088  00000+0 -26432-3 0  9990
2 56057  87.9054 298.7912 0001467  89.8947 270.2352 13.16594252112732
ONEWEB-0557             
1 56058U 23043N   25181.88756057  .00000018  00000+0  12758-4 0  9994
2 56058  87.9052 298.8102 0000848 137.9557 222.1639 13.16594835113649
